STARLINK-37706          
1 69127U 26110D   26163.83335647 -.02435185  00000+0 -68321-1 0  9992
2 69127  97.2844   0.2615 0001848  76.8447  99.2779 15.40234786  4953
STARLINK-37723          
1 69128U 26110E   26163.83335647 -.02430629  00000+0 -67582-1 0  9999
2 69128  97.2848   0.2676 0001900  81.6191 108.3513 15.40498147  4955
STARLINK-37720          
1 69129U 26110F   26163.76754705  .00038479  00000+0  70489-3 0  9997
2 69129  97.2848 359.9654 0001460  88.9389 271.2029 15.49222324  4915
STARLINK-37533          
1 69130U 26110G   26163.83335647 -.02404075  00000+0 -64479-1 0  9990
2 69130  97.2845   0.2846 0001981  90.3550 139.4638 15.41536582  4959
STARLINK-37530          
1 69131U 26110H   26163.83335647 -.02411814  00000+0 -64027-1 0  9999
2 69131  97.2846   0.2914 0001927  87.1606 155.9987 15.41854819  4959
STARLINK-37660          
1 69132U 26110J   26163.83335647  .00086371  00000+0  15766-2 0  9999
2 69132  97.2839   0.2078 0000804 101.0878 320.2409 15.49112844  4952
STARLINK-37633          
1 69133U 26110K   26163.83335647  .00105834  00000+0  19269-2 0  9998
2 69133  97.2837   0.2224 0001119 113.2685 339.0277 15.49109832  4959
STARLINK-37361          
1 69134U 26110L   26163.83335647 -.02418271  00000+0 -61979-1 0  9999
2 69134  97.2832   0.3073 0001955  90.3727 191.6812 15.42909760  4956
STARLINK-37372          
1 69135U 26110M   26163.83335647  .00084088  00000+0  15348-2 0  9991
2 69135  97.2835   0.2301 0001183  95.9532  15.5210 15.49123876  4950
STARLINK-37531          
1 69136U 26110N   26163.83335647 -.02722995  00000+0 -58083-1 0  9994
2 69136  97.2840   0.2938 0001691  91.5300 175.0265 15.48692999  4950
STARLINK-37662          
1 69137U 26110P   26163.83335647  .00098289  00000+0  17911-2 0  9999
2 69137  97.2837   0.2322 0001540  81.9858  31.3647 15.49113443  4959
STARLINK-37658          
1 69138U 26110Q   26163.78015757  .00036327  00000+0  66577-3 0  9999
2 69138  97.2837   0.1022 0000860  95.9066 264.2284 15.49221433  4926
STARLINK-37659          
1 69139U 26110R   26163.78785250  .00045027  00000+0  82369-3 0  9996
2 69139  97.2843   0.0926 0001418  83.6054 276.5359 15.49228864  4921
STARLINK-37653          
1 69140U 26110S   26163.79031953  .00065400  00000+0  11933-2 0  9998
2 69140  97.2847   0.0901 0001136  89.2829 270.8553 15.49209602  4921
STARLINK-37654          
1 69141U 26110T   26163.83335647  .00097267  00000+0  17723-2 0  9990
2 69141  97.2835   0.2354 0001574  95.5514  27.2928 15.49120574  4953
STARLINK-37655          
1 69142U 26110U   26163.83335647  .00094373  00000+0  17176-2 0  9998
2 69142  97.2840   0.2830 0000866  56.9639 177.1230 15.49165617  4959
STARLINK-37636          
1 69143U 26110V   26163.83335647 -.02636281  00000+0 -61165-1 0  9999
2 69143  97.2838   0.3501 0001774  75.8961 318.4283 15.46154025  4956
STARLINK-37638          
1 69144U 26110W   26163.83335647 -.02520463  00000+0 -57826-1 0  9993
2 69144  97.2841   0.3579 0001128  87.9638 320.2200 15.46311233  4950
STARLINK-37657          
1 69145U 26110X   26163.83335647  .00082608  00000+0  15081-2 0  9992
2 69145  97.2836   0.2350 0001654  95.2834  26.3785 15.49123800  5008
STARLINK-37639          
1 69146U 26110Y   26163.83335647 -.02637589  00000+0 -58927-1 0  9996
2 69146  97.2843   0.3665 0002164  80.9394 349.0995 15.47239662  5006
STARLINK-37661          
1 69147U 26110Z   26163.76841162  .00035201  00000+0  64563-3 0  9997
2 69147  97.2843   0.1184 0001641  88.3526 271.7913 15.49205159  4926
STARLINK-37395          
1 69148U 26111A   26163.83335647 -.02380402  00000+0 -18183-1 0  9998
2 69148  53.1587 173.5034 0001289  99.9276 181.9441 15.75044238  4847
STARLINK-37346          
1 69149U 26111B   26163.83335647 -.02501796  00000+0 -32942-1 0  9999
2 69149  53.1586 173.7312 0001403  83.1027  86.5846 15.61502814  4848
STARLINK-37332          
1 69150U 26111C   26163.83335647 -.02108536  00000+0 -37794-1 0  9996
2 69150  53.1592 173.9685 0000987 112.3730 300.6418 15.52712634  4842
STARLINK-37297          
1 69151U 26111D   26163.83335647 -.00880789  00000+0 -60212-2 0  9994
2 69151  53.1589 173.4769 0000947 101.0849 193.4235 15.76504877  4848
STARLINK-37317          
1 69152U 26111E   26163.20963655  .00227173  00000+0  11199-2 0  9992
2 69152  53.1572 176.5694 0001139 138.5590 221.5520 15.80962290  3474
STARLINK-37374          
1 69153U 26111F   26163.83335647  .00078250  00000+0  14049-2 0  9993
2 69153  53.1597 174.1364 0000977 120.7664 208.6590 15.49227933  4842
STARLINK-37235          
1 69154U 26111G   26163.83335647  .00087817  00000+0  15722-2 0  9992
2 69154  53.1584 174.3789 0000982  97.9025 112.1527 15.49255894  4840
STARLINK-37329          
1 69155U 26111H   26163.27330903  .00176578  00000+0  87750-3 0  9995
2 69155  53.1574 176.2552 0000987  65.6645 294.4481 15.80934530  3482
STARLINK-37345          
1 69156U 26111J   26163.27186116  .00200784  00000+0  99389-3 0  9999
2 69156  53.1573 176.2460 0000806  73.7812 286.3299 15.80948075  3482
