OBJECT_NAME,OBJECT_ID,EPOCH,MEAN_MOTION,ECCENTRICITY,INCLINATION,RA_OF_ASC_NODE,ARG_OF_PERICENTER,MEAN_ANOMALY,EPHEMERIS_TYPE,CLASSIFICATION_TYPE,NORAD_CAT_ID,ELEMENT_SET_NO,REV_AT_EPOCH,BSTAR,MEAN_MOTION_DOT,MEAN_MOTION_DDOT
STARLINK-37706,2026-110D,2026-06-12T20:00:01.999008,15.40234786,.0001848,97.2844,0.2615,76.8447,99.2779,0,U,69127,999,495,-.68321E-1,-.2435185E-1,0
STARLINK-37723,2026-110E,2026-06-12T20:00:01.999008,15.40498147,.00019,97.2848,0.2676,81.6191,108.3513,0,U,69128,999,495,-.67582E-1,-.2430629E-1,0
STARLINK-37720,2026-110F,2026-06-12T18:25:16.065120,15.49222324,.000146,97.2848,359.9654,88.9389,271.2029,0,U,69129,999,491,.70489E-3,.38479E-3,0
STARLINK-37533,2026-110G,2026-06-12T20:00:01.999008,15.41536582,.0001981,97.2845,0.2846,90.3550,139.4638,0,U,69130,999,495,-.64479E-1,-.2404075E-1,0
STARLINK-37530,2026-110H,2026-06-12T20:00:01.999008,15.41854819,.0001927,97.2846,0.2914,87.1606,155.9987,0,U,69131,999,495,-.64027E-1,-.2411814E-1,0
STARLINK-37660,2026-110J,2026-06-12T20:00:01.999008,15.49112844,.0000804,97.2839,0.2078,101.0878,320.2409,0,U,69132,999,495,.15766E-2,.86371E-3,0
STARLINK-37633,2026-110K,2026-06-12T20:00:01.999008,15.49109832,.0001119,97.2837,0.2224,113.2685,339.0277,0,U,69133,999,495,.19269E-2,.105834E-2,0
STARLINK-37361,2026-110L,2026-06-12T20:00:01.999008,15.42909760,.0001955,97.2832,0.3073,90.3727,191.6812,0,U,69134,999,495,-.61979E-1,-.2418271E-1,0
STARLINK-37372,2026-110M,2026-06-12T20:00:01.999008,15.49123876,.0001183,97.2835,0.2301,95.9532,15.5210,0,U,69135,999,495,.15348E-2,.84088E-3,0
STARLINK-37531,2026-110N,2026-06-12T20:00:01.999008,15.48692999,.0001691,97.2840,0.2938,91.5300,175.0265,0,U,69136,999,495,-.58083E-1,-.2722995E-1,0
STARLINK-37662,2026-110P,2026-06-12T20:00:01.999008,15.49113443,.000154,97.2837,0.2322,81.9858,31.3647,0,U,69137,999,495,.17911E-2,.98289E-3,0
STARLINK-37658,2026-110Q,2026-06-12T18:43:25.614048,15.49221433,.000086,97.2837,0.1022,95.9066,264.2284,0,U,69138,999,492,.66577E-3,.36327E-3,0
STARLINK-37659,2026-110R,2026-06-12T18:54:30.456000,15.49228864,.0001418,97.2843,0.0926,83.6054,276.5359,0,U,69139,999,492,.82369E-3,.45027E-3,0
STARLINK-37653,2026-110S,2026-06-12T18:58:03.607392,15.49209602,.0001136,97.2847,0.0901,89.2829,270.8553,0,U,69140,999,492,.11933E-2,.654E-3,0
STARLINK-37654,2026-110T,2026-06-12T20:00:01.999008,15.49120574,.0001574,97.2835,0.2354,95.5514,27.2928,0,U,69141,999,495,.17723E-2,.97267E-3,0
STARLINK-37655,2026-110U,2026-06-12T20:00:01.999008,15.49165617,.0000866,97.2840,0.2830,56.9639,177.1230,0,U,69142,999,495,.17176E-2,.94373E-3,0
STARLINK-37636,2026-110V,2026-06-12T20:00:01.999008,15.46154025,.0001774,97.2838,0.3501,75.8961,318.4283,0,U,69143,999,495,-.61165E-1,-.2636281E-1,0
STARLINK-37638,2026-110W,2026-06-12T20:00:01.999008,15.46311233,.0001128,97.2841,0.3579,87.9638,320.2200,0,U,69144,999,495,-.57826E-1,-.2520463E-1,0
STARLINK-37657,2026-110X,2026-06-12T20:00:01.999008,15.49123800,.0001654,97.2836,0.2350,95.2834,26.3785,0,U,69145,999,500,.15081E-2,.82608E-3,0
STARLINK-37639,2026-110Y,2026-06-12T20:00:01.999008,15.47239662,.0002164,97.2843,0.3665,80.9394,349.0995,0,U,69146,999,500,-.58927E-1,-.2637589E-1,0
STARLINK-37661,2026-110Z,2026-06-12T18:26:30.763968,15.49205159,.0001641,97.2843,0.1184,88.3526,271.7913,0,U,69147,999,492,.64563E-3,.35201E-3,0
STARLINK-37395,2026-111A,2026-06-12T20:00:01.999008,15.75044238,.0001289,53.1587,173.5034,99.9276,181.9441,0,U,69148,999,484,-.18183E-1,-.2380402E-1,0
STARLINK-37346,2026-111B,2026-06-12T20:00:01.999008,15.61502814,.0001403,53.1586,173.7312,83.1027,86.5846,0,U,69149,999,484,-.32942E-1,-.2501796E-1,0
STARLINK-37332,2026-111C,2026-06-12T20:00:01.999008,15.52712634,.0000987,53.1592,173.9685,112.3730,300.6418,0,U,69150,999,484,-.37794E-1,-.2108536E-1,0
STARLINK-37297,2026-111D,2026-06-12T20:00:01.999008,15.76504877,.0000947,53.1589,173.4769,101.0849,193.4235,0,U,69151,999,484,-.60212E-2,-.880789E-2,0
STARLINK-37317,2026-111E,2026-06-12T05:01:52.597920,15.80962290,.0001139,53.1572,176.5694,138.5590,221.5520,0,U,69152,999,347,.11198729E-2,.227173E-2,0
STARLINK-37374,2026-111F,2026-06-12T20:00:01.999008,15.49227933,.0000977,53.1597,174.1364,120.7664,208.6590,0,U,69153,999,484,.14049E-2,.7825E-3,0
STARLINK-37235,2026-111G,2026-06-12T20:00:01.999008,15.49255894,.0000982,53.1584,174.3789,97.9025,112.1527,0,U,69154,999,484,.15722E-2,.87817E-3,0
STARLINK-37329,2026-111H,2026-06-12T06:33:33.900192,15.80934530,.00009875,53.1574,176.2552,65.6645,294.4481,0,U,69155,999,348,.87750232E-3,.176578E-2,0
STARLINK-37345,2026-111J,2026-06-12T06:31:28.804224,15.80948075,.00008069,53.1573,176.2460,73.7812,286.3299,0,U,69156,999,348,.99388731E-3,.200784E-2,0
